STARLINK-1361
1 45567U 20025AN  26061.13040740  .00070332  00000+0  14051-2 0  9997
2 45567  53.0517 110.0131 0007249   0.1459 359.9548 15.46171956324386
